SEMAPHORE_L_00011003-01
1 69038U 26652CA  26070.40785880  .00000000  00000+0  00000-0 0  9991
2 69038  54.0000  10.0000 0000000   0.0000   0.3333 15.21936487    17
SEMAPHORE_L_00011003-02
1 69039U 25325ZU  26070.40785880  .00000000  00000+0  00000-0 0  9998
2 69039  54.0000  10.0000 0000000   0.0000   3.3333 15.21936487    11
SEMAPHORE_L_00011003-03
1 69040U 22605SX  26070.40785880  .00000000  00000+0  00000-0 0  9998
2 69040  54.0000  10.0000 0000000   0.0000   6.3333 15.21936487    16
SEMAPHORE_L_00011003-04
1 69041U 26408DZ  26070.40785880  .00000000  00000+0  00000-0 0  9994
2 69041  54.0000  10.0000 0000000   0.0000   9.3333 15.21936487    10
SEMAPHORE_L_00011003-05
1 69042U 24764FZ  26070.40785880  .00000000  00000+0  00000-0 0  9998
2 69042  54.0000  10.0000 0000000   0.0000  12.3333 15.21936487    15
SEMAPHORE_L_00011003-06
1 69043U 23900JY  26070.40785880  .00000000  00000+0  00000-0 0  9990
2 69043  54.0000  10.0000 0000000   0.0000  15.3333 15.21936487    19
SEMAPHORE_L_00011003-07
1 69044U 24771XH  26070.40785880  .00000000  00000+0  00000-0 0  9998
2 69044  54.0000  10.0000 0000000   0.0000  18.3333 15.21936487    13
SEMAPHORE_L_00011003-08
1 69045U 24280JM  26070.40785880  .00000000  00000+0  00000-0 0  9994
2 69045  54.0000  10.0000 0000000   0.0000  21.3333 15.21936487    18
SEMAPHORE_L_00011003-09
1 69046U 26842EY  26070.40785880  .00000000  00000+0  00000-0 0  9991
2 69046  54.0000  10.0000 0000000   0.0000  24.3333 15.21936487    12
SEMAPHORE_L_00011003-10
1 69047U 23541NX  26070.40785880  .00000000  00000+0  00000-0 0  9995
2 69047  54.0000  10.0000 0000000   0.0000  27.3333 15.21936487    16
SEMAPHORE_L_00011003-11
1 69048U 23635EM  26070.40785880  .00000000  00000+0  00000-0 0  9990
2 69048  54.0000  10.0000 0000000   0.0000  30.3333 15.21936487    11
SEMAPHORE_L_00011003-12
1 69049U 24836NC  26070.40785880  .00000000  00000+0  00000-0 0  9995
2 69049  54.0000  10.0000 0000000   0.0000  33.3333 15.21936487    15
SEMAPHORE_L_00011003-13
1 69050U 25087OY  26070.40785880  .00000000  00000+0  00000-0 0  9996
2 69050  54.0000  10.0000 0000000   0.0000  36.3333 15.21936487    10
SEMAPHORE_L_00011003-14
1 69051U 25203KA  26070.40785880  .00000000  00000+0  00000-0 0  9997
2 69051  54.0000  10.0000 0000000   0.0000  39.3333 15.21936487    14
SEMAPHORE_L_00011003-15
1 69052U 22901BG  26070.40785880  .00000000  00000+0  00000-0 0  9990
2 69052  54.0000  10.0000 0000000   0.0000  42.3333 15.21936487    19
SEMAPHORE_L_00011003-16
1 69053U 23097ZW  26070.40785880  .00000000  00000+0  00000-0 0  9998
2 69053  54.0000  10.0000 0000000   0.0000  45.3333 15.21936487    13
SEMAPHORE_L_00011003-17
1 69054U 25793DR  26070.40785880  .00000000  00000+0  00000-0 0  9994
2 69054  54.0000  10.0000 0000000   0.0000  48.3333 15.21936487    17
SEMAPHORE_L_00011003-18
1 69055U 22167AX  26070.40785880  .00000000  00000+0  00000-0 0  9997
2 69055  54.0000  10.0000 0000000   0.0000  51.3333 15.21936487    12
SEMAPHORE_L_00011003-19
1 69056U 22716FF  26070.40785880  .00000000  00000+0  00000-0 0  9998
2 69056  54.0000  10.0000 0000000   0.0000  54.3333 15.21936487    16
SEMAPHORE_L_00011003-20
1 69057U 24547ZH  26070.40785880  .00000000  00000+0  00000-0 0  9993
2 69057  54.0000  10.0000 0000000   0.0000  57.3333 15.21936487    10
SEMAPHORE_L_00011003-21
1 69058U 25811BX  26070.40785880  .00000000  00000+0  00000-0 0  9999
2 69058  54.0000  10.0000 0000000   0.0000  60.3333 15.21936487    15
SEMAPHORE_L_00011003-22
1 69059U 22322D   26070.40785880  .00000000  00000+0  00000-0 0  9994
2 69059  54.0000  10.0000 0000000   0.0000  63.3333 15.21936487    19
SEMAPHORE_L_00011003-23
1 69060U 24465KM  26070.40785880  .00000000  00000+0  00000-0 0  9996
2 69060  54.0000  10.0000 0000000   0.0000  66.3333 15.21936487    14
SEMAPHORE_L_00011003-24
1 69061U 24454CD  26070.40785880  .00000000  00000+0  00000-0 0  9995
2 69061  54.0000  10.0000 0000000   0.0000  69.3333 15.21936487    18
SEMAPHORE_L_00011003-25
1 69062U 23476QW  26070.40785880  .00000000  00000+0  00000-0 0  9999
2 69062  54.0000  10.0000 0000000   0.0000  72.3333 15.21936487    13
SEMAPHORE_L_00011003-26
1 69063U 24963WD  26070.40785880  .00000000  00000+0  00000-0 0  9992
2 69063  54.0000  10.0000 0000000   0.0000  75.3333 15.21936487    17
SEMAPHORE_L_00011003-27
1 69064U 23576KK  26070.40785880  .00000000  00000+0  00000-0 0  9992
2 69064  54.0000  10.0000 0000000   0.0000  78.3333 15.21936487    11
SEMAPHORE_L_00011003-28
1 69065U 25062VZ  26070.40785880  .00000000  00000+0  00000-0 0  9995
2 69065  54.0000  10.0000 0000000   0.0000  81.3333 15.21936487    16
SEMAPHORE_L_00011003-29
1 69066U 25721QR  26070.40785880  .00000000  00000+0  00000-0 0  9998
2 69066  54.0000  10.0000 0000000   0.0000  84.3333 15.21936487    10
SEMAPHORE_L_00011003-30
1 69067U 25374HU  26070.40785880  .00000000  00000+0  00000-0 0  9993
2 69067  54.0000  10.0000 0000000   0.0000  87.3333 15.21936487    14
SEMAPHORE_L_00011003-31
1 69068U 24969TT  26070.40785880  .00000000  00000+0  00000-0 0  9993
2 69068  54.0000  10.0000 0000000   0.0000  90.3333 15.21936487    19
SEMAPHORE_L_00011003-32
1 69069U 24653MX  26070.40785880  .00000000  00000+0  00000-0 0  9994
2 69069  54.0000  10.0000 0000000   0.0000  93.3333 15.21936487    13
SEMAPHORE_L_00011003-33
1 69070U 23397HI  26070.40785880  .00000000  00000+0  00000-0 0  9990
2 69070  54.0000  10.0000 0000000   0.0000  96.3333 15.21936487    18
SEMAPHORE_L_00011003-34
1 69071U 25239SO  26070.40785880  .00000000  00000+0  00000-0 0  9998
2 69071  54.0000  10.0000 0000000   0.0000  99.3333 15.21936487    12
SEMAPHORE_L_00011003-35
1 69072U 22692VK  26070.40785880  .00000000  00000+0  00000-0 0  9999
2 69072  54.0000  10.0000 0000000   0.0000 102.3333 15.21936487    18
SEMAPHORE_L_00011003-36
1 69073U 22820ME  26070.40785880  .00000000  00000+0  00000-0 0  9993
2 69073  54.0000  10.0000 0000000   0.0000 105.3333 15.21936487    12
SEMAPHORE_L_00011003-37
1 69074U 24882OG  26070.40785880  .00000000  00000+0  00000-0 0  9994
2 69074  54.0000  10.0000 0000000   0.0000 108.3333 15.21936487    16
SEMAPHORE_L_00011003-38
1 69075U 23783PI  26070.40785880  .00000000  00000+0  00000-0 0  9994
2 69075  54.0000  10.0000 0000000   0.0000 111.3333 15.21936487    11
SEMAPHORE_L_00011003-39
1 69076U 25071KP  26070.40785880  .00000000  00000+0  00000-0 0  9997
2 69076  54.0000  10.0000 0000000   0.0000 114.3333 15.21936487    15
SEMAPHORE_L_00011003-40
1 69077U 24622YM  26070.40785880  .00000000  00000+0  00000-0 0  9999
2 69077  54.0000  10.0000 0000000   0.0000 117.3333 15.21936487    19
SEMAPHORE_L_00011003-41
1 69078U 26473NB  26070.40785880  .00000000  00000+0  00000-0 0  9996
2 69078  54.0000  10.0000 0000000   0.0000 120.3333 15.21936487    14
SEMAPHORE_L_00011003-42
1 69079U 25558HS  26070.40785880  .00000000  00000+0  00000-0 0  9990
2 69079  54.0000  10.0000 0000000   0.0000 123.3333 15.21936487    18
SEMAPHORE_L_00011003-43
1 69080U 22950AX  26070.40785880  .00000000  00000+0  00000-0 0  9995
2 69080  54.0000  10.0000 0000000   0.0000 126.3333 15.21936487    13
SEMAPHORE_L_00011003-44
1 69081U 22765KM  26070.40785880  .00000000  00000+0  00000-0 0  9990
2 69081  54.0000  10.0000 0000000   0.0000 129.3333 15.21936487    17
SEMAPHORE_L_00011003-45
1 69082U 25099K   26070.40785880  .00000000  00000+0  00000-0 0  9994
2 69082  54.0000  10.0000 0000000   0.0000 132.3333 15.21936487    12
SEMAPHORE_L_00011003-46
1 69083U 22129ZN  26070.40785880  .00000000  00000+0  00000-0 0  9996
2 69083  54.0000  10.0000 0000000   0.0000 135.3333 15.21936487    16
SEMAPHORE_L_00011003-47
1 69084U 22333NF  26070.40785880  .00000000  00000+0  00000-0 0  9994
2 69084  54.0000  10.0000 0000000   0.0000 138.3333 15.21936487    10
SEMAPHORE_L_00011003-48
1 69085U 23829ZL  26070.40785880  .00000000  00000+0  00000-0 0  9996
2 69085  54.0000  10.0000 0000000   0.0000 141.3333 15.21936487    15
SEMAPHORE_L_00011003-49
1 69086U 26805SQ  26070.40785880  .00000000  00000+0  00000-0 0  9994
2 69086  54.0000  10.0000 0000000   0.0000 144.3333 15.21936487    19
SEMAPHORE_L_00011003-50
1 69087U 24334QU  26070.40785880  .00000000  00000+0  00000-0 0  9990
2 69087  54.0000  10.0000 0000000   0.0000 147.3333 15.21936487    13
SEMAPHORE_L_00011003-51
1 69088U 24912CH  26070.40785880  .00000000  00000+0  00000-0 0  9993
2 69088  54.0000  10.0000 0000000   0.0000 150.3333 15.21936487    18
SEMAPHORE_L_00011003-52
1 69089U 24901XZ  26070.40785880  .00000000  00000+0  00000-0 0  9992
2 69089  54.0000  10.0000 0000000   0.0000 153.3333 15.21936487    12
SEMAPHORE_L_00011003-53
1 69090U 22062HT  26070.40785880  .00000000  00000+0  00000-0 0  9990
2 69090  54.0000  10.0000 0000000   0.0000 156.3333 15.21936487    17
SEMAPHORE_L_00011003-54
1 69091U 22400PV  26070.40785880  .00000000  00000+0  00000-0 0  9997
2 69091  54.0000  10.0000 0000000   0.0000 159.3333 15.21936487    11
SEMAPHORE_L_00011003-55
1 69092U 25160BL  26070.40785880  .00000000  00000+0  00000-0 0  9994
2 69092  54.0000  10.0000 0000000   0.0000 162.3333 15.21936487    16
SEMAPHORE_L_00011003-56
1 69093U 25738OW  26070.40785880  .00000000  00000+0  00000-0 0  9996
2 69093  54.0000  10.0000 0000000   0.0000 165.3333 15.21936487    10
SEMAPHORE_L_00011003-57
1 69094U 24502MA  26070.40785880  .00000000  00000+0  00000-0 0  9995
2 69094  54.0000  10.0000 0000000   0.0000 168.3333 15.21936487    14
SEMAPHORE_L_00011003-58
1 69095U 22778QT  26070.40785880  .00000000  00000+0  00000-0 0  9999
2 69095  54.0000  10.0000 0000000   0.0000 171.3333 15.21936487    19
SEMAPHORE_L_00011003-59
1 69096U 23008AV  26070.40785880  .00000000  00000+0  00000-0 0  9997
2 69096  54.0000  10.0000 0000000   0.0000 174.3333 15.21936487    13
SEMAPHORE_L_00011003-60
1 69097U 26074ZV  26070.40785880  .00000000  00000+0  00000-0 0  9994
2 69097  54.0000  10.0000 0000000   0.0000 177.3333 15.21936487    17
